{
"type": "FeatureCollection",
"name": "concorrentes",
"crs": { "type": "name", "properties": { "name": "urn:ogc:def:crs:OGC:1.3:CRS84" } },
"features": [
{ "type": "Feature", "properties": { "loja_id": "AG01", "nome": "Dia", "tipo": "supermarket" }, "geometry": { "type": "Point", "coordinates": [ -46.679712, -23.585303 ] } },
{ "type": "Feature", "properties": { "loja_id": "AG01", "nome": "Oxxo", "tipo": "convenience" }, "geometry": { "type": "Point", "coordinates": [ -46.675465, -23.58292 ] } },
{ "type": "Feature", "properties": { "loja_id": "AG01", "nome": "Mercado Extra", "tipo": "supermarket" }, "geometry": { "type": "Point", "coordinates": [ -46.67618, -23.587883 ] } },
{ "type": "Feature", "properties": { "loja_id": "AG01", "nome": "Pão de Açúcar", "tipo": "supermarket" }, "geometry": { "type": "Point", "coordinates": [ -46.677191, -23.592569 ] } },
{ "type": "Feature", "properties": { "loja_id": "AG02", "nome": "Mercado da Villa", "tipo": "convenience" }, "geometry": { "type": "Point", "coordinates": [ -46.648312, -23.555571 ] } },
{ "type": "Feature", "properties": { "loja_id": "AG02", "nome": "Tutti Conveniências", "tipo": "supermarket" }, "geometry": { "type": "Point", "coordinates": [ -46.652415, -23.55617 ] } },
{ "type": "Feature", "properties": { "loja_id": "AG02", "nome": "Mioni Mercado Superação", "tipo": "convenience" }, "geometry": { "type": "Point", "coordinates": [ -46.649942, -23.556988 ] } },
{ "type": "Feature", "properties": { "loja_id": "AG02", "nome": "(sem nome)", "tipo": "convenience" }, "geometry": { "type": "Point", "coordinates": [ -46.655524, -23.554341 ] } },
{ "type": "Feature", "properties": { "loja_id": "AG02", "nome": "(sem nome)", "tipo": "convenience" }, "geometry": { "type": "Point", "coordinates": [ -46.655722, -23.554286 ] } },
{ "type": "Feature", "properties": { "loja_id": "AG02", "nome": "Augusta sacolão e mercado", "tipo": "supermarket" }, "geometry": { "type": "Point", "coordinates": [ -46.656731, -23.554955 ] } },
{ "type": "Feature", "properties": { "loja_id": "AG02", "nome": "(sem nome)", "tipo": "convenience" }, "geometry": { "type": "Point", "coordinates": [ -46.655417, -23.553727 ] } },
{ "type": "Feature", "properties": { "loja_id": "AG02", "nome": "(sem nome)", "tipo": "convenience" }, "geometry": { "type": "Point", "coordinates": [ -46.655404, -23.557179 ] } },
{ "type": "Feature", "properties": { "loja_id": "AG02", "nome": "Zé do pito", "tipo": "convenience" }, "geometry": { "type": "Point", "coordinates": [ -46.65594, -23.554209 ] } },
{ "type": "Feature", "properties": { "loja_id": "AG02", "nome": "Carrefour Express", "tipo": "convenience" }, "geometry": { "type": "Point", "coordinates": [ -46.657218, -23.555499 ] } },
{ "type": "Feature", "properties": { "loja_id": "AG02", "nome": "Mercado Extra", "tipo": "supermarket" }, "geometry": { "type": "Point", "coordinates": [ -46.654381, -23.554452 ] } },
{ "type": "Feature", "properties": { "loja_id": "AG02", "nome": "Minuto Pão de Açúcar", "tipo": "supermarket" }, "geometry": { "type": "Point", "coordinates": [ -46.657333, -23.567541 ] } },
{ "type": "Feature", "properties": { "loja_id": "AG02", "nome": "Carrefour Market", "tipo": "supermarket" }, "geometry": { "type": "Point", "coordinates": [ -46.656893, -23.556352 ] } },
{ "type": "Feature", "properties": { "loja_id": "AG02", "nome": "Minuto Pão de Açúcar", "tipo": "supermarket" }, "geometry": { "type": "Point", "coordinates": [ -46.661424, -23.568097 ] } },
{ "type": "Feature", "properties": { "loja_id": "AG02", "nome": "Oba", "tipo": "supermarket" }, "geometry": { "type": "Point", "coordinates": [ -46.655191, -23.56502 ] } },
{ "type": "Feature", "properties": { "loja_id": "AG02", "nome": "Oxxo", "tipo": "convenience" }, "geometry": { "type": "Point", "coordinates": [ -46.657188, -23.567094 ] } },
{ "type": "Feature", "properties": { "loja_id": "AG03", "nome": "Mister Narguiles Shisha Shop", "tipo": "supermarket" }, "geometry": { "type": "Point", "coordinates": [ -46.691872, -23.563656 ] } },
{ "type": "Feature", "properties": { "loja_id": "AG03", "nome": "Carrefour Express", "tipo": "convenience" }, "geometry": { "type": "Point", "coordinates": [ -46.685048, -23.565347 ] } },
{ "type": "Feature", "properties": { "loja_id": "AG03", "nome": "Carrefour Express", "tipo": "supermarket" }, "geometry": { "type": "Point", "coordinates": [ -46.695385, -23.567682 ] } },
{ "type": "Feature", "properties": { "loja_id": "AG03", "nome": "Dia Market", "tipo": "supermarket" }, "geometry": { "type": "Point", "coordinates": [ -46.687212, -23.56331 ] } },
{ "type": "Feature", "properties": { "loja_id": "AG03", "nome": "Carrefour Express", "tipo": "convenience" }, "geometry": { "type": "Point", "coordinates": [ -46.689737, -23.560602 ] } },
{ "type": "Feature", "properties": { "loja_id": "AG03", "nome": "(sem nome)", "tipo": "convenience" }, "geometry": { "type": "Point", "coordinates": [ -46.694216, -23.569579 ] } },
{ "type": "Feature", "properties": { "loja_id": "AG03", "nome": "Futurama", "tipo": "supermarket" }, "geometry": { "type": "Point", "coordinates": [ -46.692336, -23.56779 ] } },
{ "type": "Feature", "properties": { "loja_id": "AG03", "nome": "Americanas Express", "tipo": "convenience" }, "geometry": { "type": "Point", "coordinates": [ -46.690945, -23.568027 ] } },
{ "type": "Feature", "properties": { "loja_id": "AG03", "nome": "Futurama", "tipo": "supermarket" }, "geometry": { "type": "Point", "coordinates": [ -46.692383, -23.567216 ] } },
{ "type": "Feature", "properties": { "loja_id": "AG03", "nome": "Quitanda São Paulo", "tipo": "convenience" }, "geometry": { "type": "Point", "coordinates": [ -46.684183, -23.564624 ] } },
{ "type": "Feature", "properties": { "loja_id": "AG03", "nome": "Mini Extra", "tipo": "convenience" }, "geometry": { "type": "Point", "coordinates": [ -46.686608, -23.567309 ] } },
{ "type": "Feature", "properties": { "loja_id": "AG03", "nome": "Oxxo", "tipo": "convenience" }, "geometry": { "type": "Point", "coordinates": [ -46.686893, -23.562661 ] } },
{ "type": "Feature", "properties": { "loja_id": "AG03", "nome": "Carrefour Express", "tipo": "convenience" }, "geometry": { "type": "Point", "coordinates": [ -46.691912, -23.566111 ] } },
{ "type": "Feature", "properties": { "loja_id": "AG03", "nome": "Oxxo", "tipo": "convenience" }, "geometry": { "type": "Point", "coordinates": [ -46.690409, -23.565449 ] } },
{ "type": "Feature", "properties": { "loja_id": "AG03", "nome": "Mareloi", "tipo": "convenience" }, "geometry": { "type": "Point", "coordinates": [ -46.697864, -23.57026 ] } },
{ "type": "Feature", "properties": { "loja_id": "AG03", "nome": "(sem nome)", "tipo": "convenience" }, "geometry": { "type": "Point", "coordinates": [ -46.700111, -23.566273 ] } },
{ "type": "Feature", "properties": { "loja_id": "AG03", "nome": "(sem nome)", "tipo": "convenience" }, "geometry": { "type": "Point", "coordinates": [ -46.69143, -23.570561 ] } },
{ "type": "Feature", "properties": { "loja_id": "AG03", "nome": "(sem nome)", "tipo": "convenience" }, "geometry": { "type": "Point", "coordinates": [ -46.692195, -23.568133 ] } },
{ "type": "Feature", "properties": { "loja_id": "AG03", "nome": "(sem nome)", "tipo": "convenience" }, "geometry": { "type": "Point", "coordinates": [ -46.687896, -23.560791 ] } },
{ "type": "Feature", "properties": { "loja_id": "AG03", "nome": "Carrefour Express", "tipo": "convenience" }, "geometry": { "type": "Point", "coordinates": [ -46.689738, -23.572305 ] } },
{ "type": "Feature", "properties": { "loja_id": "AG03", "nome": "Blue Point", "tipo": "convenience" }, "geometry": { "type": "Point", "coordinates": [ -46.694198, -23.563873 ] } },
{ "type": "Feature", "properties": { "loja_id": "AG03", "nome": "Oxxo", "tipo": "convenience" }, "geometry": { "type": "Point", "coordinates": [ -46.6855, -23.564745 ] } },
{ "type": "Feature", "properties": { "loja_id": "AG03", "nome": "Oxxo", "tipo": "convenience" }, "geometry": { "type": "Point", "coordinates": [ -46.687258, -23.566054 ] } },
{ "type": "Feature", "properties": { "loja_id": "AG03", "nome": "Cia dos doces", "tipo": "convenience" }, "geometry": { "type": "Point", "coordinates": [ -46.687021, -23.562192 ] } },
{ "type": "Feature", "properties": { "loja_id": "AG03", "nome": "Americanas express", "tipo": "convenience" }, "geometry": { "type": "Point", "coordinates": [ -46.689347, -23.564565 ] } },
{ "type": "Feature", "properties": { "loja_id": "AG03", "nome": "Gaivota", "tipo": "supermarket" }, "geometry": { "type": "Point", "coordinates": [ -46.691856, -23.565355 ] } },
{ "type": "Feature", "properties": { "loja_id": "AG03", "nome": "(sem nome)", "tipo": "convenience" }, "geometry": { "type": "Point", "coordinates": [ -46.695441, -23.571168 ] } },
{ "type": "Feature", "properties": { "loja_id": "AG03", "nome": "(sem nome)", "tipo": "convenience" }, "geometry": { "type": "Point", "coordinates": [ -46.697903, -23.565307 ] } },
{ "type": "Feature", "properties": { "loja_id": "AG03", "nome": "Oxxo", "tipo": "convenience" }, "geometry": { "type": "Point", "coordinates": [ -46.687924, -23.561276 ] } },
{ "type": "Feature", "properties": { "loja_id": "AG03", "nome": "Pão de Açúcar", "tipo": "supermarket" }, "geometry": { "type": "Point", "coordinates": [ -46.686696, -23.563947 ] } },
{ "type": "Feature", "properties": { "loja_id": "AG03", "nome": "Don Grano Empório", "tipo": "supermarket" }, "geometry": { "type": "Point", "coordinates": [ -46.686213, -23.563226 ] } },
{ "type": "Feature", "properties": { "loja_id": "AG03", "nome": "Supermercados Mambo", "tipo": "supermarket" }, "geometry": { "type": "Point", "coordinates": [ -46.692759, -23.560655 ] } },
{ "type": "Feature", "properties": { "loja_id": "AG03", "nome": "Padrão", "tipo": "supermarket" }, "geometry": { "type": "Point", "coordinates": [ -46.695433, -23.566318 ] } },
{ "type": "Feature", "properties": { "loja_id": "AG03", "nome": "Oxxo", "tipo": "convenience" }, "geometry": { "type": "Point", "coordinates": [ -46.692013, -23.568583 ] } },
{ "type": "Feature", "properties": { "loja_id": "AG04", "nome": "econ", "tipo": "supermarket" }, "geometry": { "type": "Point", "coordinates": [ -46.630598, -23.588238 ] } },
{ "type": "Feature", "properties": { "loja_id": "AG04", "nome": "ampm", "tipo": "convenience" }, "geometry": { "type": "Point", "coordinates": [ -46.637009, -23.593099 ] } },
{ "type": "Feature", "properties": { "loja_id": "AG04", "nome": "Dia", "tipo": "supermarket" }, "geometry": { "type": "Point", "coordinates": [ -46.629466, -23.593198 ] } },
{ "type": "Feature", "properties": { "loja_id": "AG04", "nome": "Carrefour Express", "tipo": "convenience" }, "geometry": { "type": "Point", "coordinates": [ -46.635379, -23.589045 ] } },
{ "type": "Feature", "properties": { "loja_id": "AG04", "nome": "Minuto Pão de Açúcar", "tipo": "supermarket" }, "geometry": { "type": "Point", "coordinates": [ -46.630082, -23.58807 ] } },
{ "type": "Feature", "properties": { "loja_id": "AG04", "nome": "Oxxo", "tipo": "convenience" }, "geometry": { "type": "Point", "coordinates": [ -46.635101, -23.589359 ] } },
{ "type": "Feature", "properties": { "loja_id": "AG04", "nome": "Pastorinho Supermercados", "tipo": "supermarket" }, "geometry": { "type": "Point", "coordinates": [ -46.636048, -23.593561 ] } },
{ "type": "Feature", "properties": { "loja_id": "AG04", "nome": "Supermercado Vila das Frutas", "tipo": "supermarket" }, "geometry": { "type": "Point", "coordinates": [ -46.635264, -23.587083 ] } },
{ "type": "Feature", "properties": { "loja_id": "AG04", "nome": "Tabemashô Produtos Orientais", "tipo": "convenience" }, "geometry": { "type": "Point", "coordinates": [ -46.634721, -23.597068 ] } },
{ "type": "Feature", "properties": { "loja_id": "AG04", "nome": "Dia Market", "tipo": "supermarket" }, "geometry": { "type": "Point", "coordinates": [ -46.627829, -23.583564 ] } },
{ "type": "Feature", "properties": { "loja_id": "AG04", "nome": "Carrefour", "tipo": "supermarket" }, "geometry": { "type": "Point", "coordinates": [ -46.638711, -23.582069 ] } },
{ "type": "Feature", "properties": { "loja_id": "AG04", "nome": "Mercado Abençoado", "tipo": "convenience" }, "geometry": { "type": "Point", "coordinates": [ -46.642286, -23.592008 ] } },
{ "type": "Feature", "properties": { "loja_id": "AG04", "nome": "Carrefour Express", "tipo": "convenience" }, "geometry": { "type": "Point", "coordinates": [ -46.639664, -23.588607 ] } },
{ "type": "Feature", "properties": { "loja_id": "AG05", "nome": "Shell Select", "tipo": "convenience" }, "geometry": { "type": "Point", "coordinates": [ -46.606678, -23.550695 ] } },
{ "type": "Feature", "properties": { "loja_id": "AG05", "nome": "(sem nome)", "tipo": "convenience" }, "geometry": { "type": "Point", "coordinates": [ -46.604044, -23.555226 ] } },
{ "type": "Feature", "properties": { "loja_id": "AG05", "nome": "Dia", "tipo": "supermarket" }, "geometry": { "type": "Point", "coordinates": [ -46.594955, -23.550901 ] } },
{ "type": "Feature", "properties": { "loja_id": "AG05", "nome": "Assaí Atacadista", "tipo": "supermarket" }, "geometry": { "type": "Point", "coordinates": [ -46.601108, -23.553863 ] } },
{ "type": "Feature", "properties": { "loja_id": "AG05", "nome": "Oxxo", "tipo": "convenience" }, "geometry": { "type": "Point", "coordinates": [ -46.604374, -23.550489 ] } },
{ "type": "Feature", "properties": { "loja_id": "AG05", "nome": "Mini Extra", "tipo": "convenience" }, "geometry": { "type": "Point", "coordinates": [ -46.594473, -23.558539 ] } },
{ "type": "Feature", "properties": { "loja_id": "AG05", "nome": "St. Marché", "tipo": "supermarket" }, "geometry": { "type": "Point", "coordinates": [ -46.595815, -23.550872 ] } },
{ "type": "Feature", "properties": { "loja_id": "AG05", "nome": "Fuxing Mercadinho", "tipo": "convenience" }, "geometry": { "type": "Point", "coordinates": [ -46.592373, -23.557437 ] } },
{ "type": "Feature", "properties": { "loja_id": "AG06", "nome": "Atacadão", "tipo": "supermarket" }, "geometry": { "type": "Point", "coordinates": [ -46.581465, -23.536586 ] } },
{ "type": "Feature", "properties": { "loja_id": "AG06", "nome": "Dia", "tipo": "supermarket" }, "geometry": { "type": "Point", "coordinates": [ -46.572938, -23.544862 ] } },
{ "type": "Feature", "properties": { "loja_id": "AG06", "nome": "(sem nome)", "tipo": "convenience" }, "geometry": { "type": "Point", "coordinates": [ -46.575432, -23.538025 ] } },
{ "type": "Feature", "properties": { "loja_id": "AG06", "nome": "Dia", "tipo": "supermarket" }, "geometry": { "type": "Point", "coordinates": [ -46.572577, -23.535498 ] } },
{ "type": "Feature", "properties": { "loja_id": "AG06", "nome": "Oxxo", "tipo": "convenience" }, "geometry": { "type": "Point", "coordinates": [ -46.570308, -23.540716 ] } },
{ "type": "Feature", "properties": { "loja_id": "AG06", "nome": "Chocolândia", "tipo": "supermarket" }, "geometry": { "type": "Point", "coordinates": [ -46.570619, -23.539716 ] } },
{ "type": "Feature", "properties": { "loja_id": "AG06", "nome": "St Marche", "tipo": "supermarket" }, "geometry": { "type": "Point", "coordinates": [ -46.567472, -23.541784 ] } },
{ "type": "Feature", "properties": { "loja_id": "AG06", "nome": "Mercado Crystal", "tipo": "convenience" }, "geometry": { "type": "Point", "coordinates": [ -46.578749, -23.534869 ] } },
{ "type": "Feature", "properties": { "loja_id": "AG06", "nome": "Preço & Cia Supermercados", "tipo": "supermarket" }, "geometry": { "type": "Point", "coordinates": [ -46.576076, -23.533305 ] } },
{ "type": "Feature", "properties": { "loja_id": "AG08", "nome": "Pão de Açúcar", "tipo": "supermarket" }, "geometry": { "type": "Point", "coordinates": [ -46.686276, -23.61041 ] } },
{ "type": "Feature", "properties": { "loja_id": "AG08", "nome": "Americanas Express", "tipo": "convenience" }, "geometry": { "type": "Point", "coordinates": [ -46.686184, -23.61075 ] } },
{ "type": "Feature", "properties": { "loja_id": "AG08", "nome": "Carrefour Express", "tipo": "convenience" }, "geometry": { "type": "Point", "coordinates": [ -46.693545, -23.606567 ] } },
{ "type": "Feature", "properties": { "loja_id": "AG08", "nome": "Carrefour Express", "tipo": "convenience" }, "geometry": { "type": "Point", "coordinates": [ -46.697333, -23.610346 ] } },
{ "type": "Feature", "properties": { "loja_id": "AG08", "nome": "Carrefour Express", "tipo": "convenience" }, "geometry": { "type": "Point", "coordinates": [ -46.69437, -23.609944 ] } },
{ "type": "Feature", "properties": { "loja_id": "AG08", "nome": "Oxxo", "tipo": "convenience" }, "geometry": { "type": "Point", "coordinates": [ -46.694518, -23.609108 ] } },
{ "type": "Feature", "properties": { "loja_id": "AG08", "nome": "BR", "tipo": "convenience" }, "geometry": { "type": "Point", "coordinates": [ -46.694169, -23.60772 ] } },
{ "type": "Feature", "properties": { "loja_id": "AG08", "nome": "Oxxo", "tipo": "convenience" }, "geometry": { "type": "Point", "coordinates": [ -46.693416, -23.607274 ] } },
{ "type": "Feature", "properties": { "loja_id": "AG08", "nome": "(sem nome)", "tipo": "convenience" }, "geometry": { "type": "Point", "coordinates": [ -46.694172, -23.609337 ] } },
{ "type": "Feature", "properties": { "loja_id": "AG09", "nome": "Amreicanas Express", "tipo": "convenience" }, "geometry": { "type": "Point", "coordinates": [ -46.650286, -23.539414 ] } },
{ "type": "Feature", "properties": { "loja_id": "AG09", "nome": "Dia", "tipo": "supermarket" }, "geometry": { "type": "Point", "coordinates": [ -46.650653, -23.540267 ] } },
{ "type": "Feature", "properties": { "loja_id": "AG09", "nome": "Mini Mercado Extra", "tipo": "convenience" }, "geometry": { "type": "Point", "coordinates": [ -46.645852, -23.547662 ] } },
{ "type": "Feature", "properties": { "loja_id": "AG09", "nome": "Mini Extra", "tipo": "convenience" }, "geometry": { "type": "Point", "coordinates": [ -46.644576, -23.549295 ] } },
{ "type": "Feature", "properties": { "loja_id": "AG09", "nome": "Carrefour Express", "tipo": "convenience" }, "geometry": { "type": "Point", "coordinates": [ -46.639218, -23.546754 ] } },
{ "type": "Feature", "properties": { "loja_id": "AG09", "nome": "(sem nome)", "tipo": "supermarket" }, "geometry": { "type": "Point", "coordinates": [ -46.641209, -23.547593 ] } },
{ "type": "Feature", "properties": { "loja_id": "AG09", "nome": "Emporio", "tipo": "supermarket" }, "geometry": { "type": "Point", "coordinates": [ -46.641383, -23.545635 ] } },
{ "type": "Feature", "properties": { "loja_id": "AG09", "nome": "Mini Extra", "tipo": "convenience" }, "geometry": { "type": "Point", "coordinates": [ -46.64503, -23.54726 ] } },
{ "type": "Feature", "properties": { "loja_id": "AG09", "nome": "Mini Mercado Extra", "tipo": "convenience" }, "geometry": { "type": "Point", "coordinates": [ -46.64578, -23.541871 ] } },
{ "type": "Feature", "properties": { "loja_id": "AG09", "nome": "Best Market", "tipo": "supermarket" }, "geometry": { "type": "Point", "coordinates": [ -46.645882, -23.541868 ] } },
{ "type": "Feature", "properties": { "loja_id": "AG09", "nome": "Oxxo", "tipo": "convenience" }, "geometry": { "type": "Point", "coordinates": [ -46.645248, -23.547592 ] } },
{ "type": "Feature", "properties": { "loja_id": "AG09", "nome": "(sem nome)", "tipo": "supermarket" }, "geometry": { "type": "Point", "coordinates": [ -46.641284, -23.54403 ] } },
{ "type": "Feature", "properties": { "loja_id": "AG09", "nome": "Carrefour Express", "tipo": "convenience" }, "geometry": { "type": "Point", "coordinates": [ -46.64325, -23.54217 ] } },
{ "type": "Feature", "properties": { "loja_id": "AG09", "nome": "NaturAll da Fazenda", "tipo": "convenience" }, "geometry": { "type": "Point", "coordinates": [ -46.648835, -23.544076 ] } },
{ "type": "Feature", "properties": { "loja_id": "AG09", "nome": "OXXO", "tipo": "convenience" }, "geometry": { "type": "Point", "coordinates": [ -46.644742, -23.541427 ] } },
{ "type": "Feature", "properties": { "loja_id": "AG09", "nome": "Mini Extra", "tipo": "convenience" }, "geometry": { "type": "Point", "coordinates": [ -46.644932, -23.541541 ] } },
{ "type": "Feature", "properties": { "loja_id": "AG09", "nome": "B/B Mercato", "tipo": "supermarket" }, "geometry": { "type": "Point", "coordinates": [ -46.637291, -23.54385 ] } },
{ "type": "Feature", "properties": { "loja_id": "AG09", "nome": "Hirota Food Express", "tipo": "convenience" }, "geometry": { "type": "Point", "coordinates": [ -46.643806, -23.545496 ] } },
{ "type": "Feature", "properties": { "loja_id": "AG09", "nome": "(sem nome)", "tipo": "supermarket" }, "geometry": { "type": "Point", "coordinates": [ -46.639913, -23.542373 ] } },
{ "type": "Feature", "properties": { "loja_id": "AG09", "nome": "Carrefour Express", "tipo": "convenience" }, "geometry": { "type": "Point", "coordinates": [ -46.637221, -23.548374 ] } },
{ "type": "Feature", "properties": { "loja_id": "AG09", "nome": "(sem nome)", "tipo": "supermarket" }, "geometry": { "type": "Point", "coordinates": [ -46.636409, -23.54901 ] } },
{ "type": "Feature", "properties": { "loja_id": "AG09", "nome": "Carrefour Express", "tipo": "convenience" }, "geometry": { "type": "Point", "coordinates": [ -46.636722, -23.548834 ] } },
{ "type": "Feature", "properties": { "loja_id": "AG09", "nome": "Carrefour Express", "tipo": "convenience" }, "geometry": { "type": "Point", "coordinates": [ -46.634902, -23.546857 ] } },
{ "type": "Feature", "properties": { "loja_id": "AG09", "nome": "Futurama", "tipo": "supermarket" }, "geometry": { "type": "Point", "coordinates": [ -46.635796, -23.538015 ] } },
{ "type": "Feature", "properties": { "loja_id": "AG09", "nome": "(sem nome)", "tipo": "supermarket" }, "geometry": { "type": "Point", "coordinates": [ -46.645041, -23.538535 ] } },
{ "type": "Feature", "properties": { "loja_id": "AG09", "nome": "Dia", "tipo": "supermarket" }, "geometry": { "type": "Point", "coordinates": [ -46.639725, -23.544219 ] } },
{ "type": "Feature", "properties": { "loja_id": "AG09", "nome": "Pequeno mercado.", "tipo": "supermarket" }, "geometry": { "type": "Point", "coordinates": [ -46.645353, -23.540014 ] } },
{ "type": "Feature", "properties": { "loja_id": "AG09", "nome": "KL", "tipo": "convenience" }, "geometry": { "type": "Point", "coordinates": [ -46.643877, -23.54906 ] } },
{ "type": "Feature", "properties": { "loja_id": "AG09", "nome": "(sem nome)", "tipo": "convenience" }, "geometry": { "type": "Point", "coordinates": [ -46.639795, -23.539482 ] } },
{ "type": "Feature", "properties": { "loja_id": "AG09", "nome": "Mini Market Yu", "tipo": "convenience" }, "geometry": { "type": "Point", "coordinates": [ -46.643708, -23.540256 ] } },
{ "type": "Feature", "properties": { "loja_id": "AG09", "nome": "Casa do Norte Canaã", "tipo": "convenience" }, "geometry": { "type": "Point", "coordinates": [ -46.635822, -23.536567 ] } },
{ "type": "Feature", "properties": { "loja_id": "AG09", "nome": "Carrefour Express", "tipo": "convenience" }, "geometry": { "type": "Point", "coordinates": [ -46.634605, -23.538988 ] } },
{ "type": "Feature", "properties": { "loja_id": "AG09", "nome": "Carrefour Express", "tipo": "convenience" }, "geometry": { "type": "Point", "coordinates": [ -46.642023, -23.548055 ] } },
{ "type": "Feature", "properties": { "loja_id": "AG09", "nome": "RS Musical", "tipo": "convenience" }, "geometry": { "type": "Point", "coordinates": [ -46.639273, -23.535705 ] } },
{ "type": "Feature", "properties": { "loja_id": "AG09", "nome": "Sacolão Avanhandava", "tipo": "supermarket" }, "geometry": { "type": "Point", "coordinates": [ -46.646484, -23.550826 ] } },
{ "type": "Feature", "properties": { "loja_id": "AG09", "nome": "Shell Select", "tipo": "convenience" }, "geometry": { "type": "Point", "coordinates": [ -46.648658, -23.548156 ] } },
{ "type": "Feature", "properties": { "loja_id": "AG09", "nome": "Oxxo", "tipo": "convenience" }, "geometry": { "type": "Point", "coordinates": [ -46.64884, -23.545489 ] } },
{ "type": "Feature", "properties": { "loja_id": "AG09", "nome": "Mini Extra", "tipo": "convenience" }, "geometry": { "type": "Point", "coordinates": [ -46.640534, -23.542036 ] } },
{ "type": "Feature", "properties": { "loja_id": "AG09", "nome": "Oxxo", "tipo": "convenience" }, "geometry": { "type": "Point", "coordinates": [ -46.642606, -23.544473 ] } },
{ "type": "Feature", "properties": { "loja_id": "AG09", "nome": "(sem nome)", "tipo": "convenience" }, "geometry": { "type": "Point", "coordinates": [ -46.646479, -23.541158 ] } },
{ "type": "Feature", "properties": { "loja_id": "AG09", "nome": "(sem nome)", "tipo": "convenience" }, "geometry": { "type": "Point", "coordinates": [ -46.646496, -23.541233 ] } },
{ "type": "Feature", "properties": { "loja_id": "AG09", "nome": "Oxxo", "tipo": "convenience" }, "geometry": { "type": "Point", "coordinates": [ -46.635463, -23.545257 ] } },
{ "type": "Feature", "properties": { "loja_id": "AG09", "nome": "(sem nome)", "tipo": "convenience" }, "geometry": { "type": "Point", "coordinates": [ -46.640265, -23.541318 ] } },
{ "type": "Feature", "properties": { "loja_id": "AG09", "nome": "Mercado Extra", "tipo": "supermarket" }, "geometry": { "type": "Point", "coordinates": [ -46.646931, -23.543298 ] } },
{ "type": "Feature", "properties": { "loja_id": "AG09", "nome": "Extra", "tipo": "supermarket" }, "geometry": { "type": "Point", "coordinates": [ -46.640193, -23.538916 ] } },
{ "type": "Feature", "properties": { "loja_id": "AG09", "nome": "Mini Mercado Extra", "tipo": "convenience" }, "geometry": { "type": "Point", "coordinates": [ -46.638948, -23.540724 ] } },
{ "type": "Feature", "properties": { "loja_id": "AG09", "nome": "Dia", "tipo": "supermarket" }, "geometry": { "type": "Point", "coordinates": [ -46.646248, -23.536697 ] } },
{ "type": "Feature", "properties": { "loja_id": "AG09", "nome": "Dia", "tipo": "supermarket" }, "geometry": { "type": "Point", "coordinates": [ -46.642936, -23.551014 ] } },
{ "type": "Feature", "properties": { "loja_id": "AG09", "nome": "Dia Market", "tipo": "supermarket" }, "geometry": { "type": "Point", "coordinates": [ -46.639567, -23.547348 ] } },
{ "type": "Feature", "properties": { "loja_id": "AG09", "nome": "Big Doces - Atacado e Varejo", "tipo": "convenience" }, "geometry": { "type": "Point", "coordinates": [ -46.636655, -23.543039 ] } },
{ "type": "Feature", "properties": { "loja_id": "AG10", "nome": "Pão de Açúcar", "tipo": "supermarket" }, "geometry": { "type": "Point", "coordinates": [ -46.678256, -23.537224 ] } },
{ "type": "Feature", "properties": { "loja_id": "AG10", "nome": "Empório Natureza em Grãos", "tipo": "convenience" }, "geometry": { "type": "Point", "coordinates": [ -46.682742, -23.535143 ] } },
{ "type": "Feature", "properties": { "loja_id": "AG10", "nome": "Mambo Supermercado", "tipo": "supermarket" }, "geometry": { "type": "Point", "coordinates": [ -46.674659, -23.531571 ] } },
{ "type": "Feature", "properties": { "loja_id": "AG10", "nome": "Carrefour Express", "tipo": "convenience" }, "geometry": { "type": "Point", "coordinates": [ -46.682036, -23.533965 ] } },
{ "type": "Feature", "properties": { "loja_id": "AG10", "nome": "Jokeka Shop Mercearia", "tipo": "convenience" }, "geometry": { "type": "Point", "coordinates": [ -46.68379, -23.536639 ] } },
{ "type": "Feature", "properties": { "loja_id": "AG10", "nome": "Oxxo", "tipo": "convenience" }, "geometry": { "type": "Point", "coordinates": [ -46.684594, -23.535731 ] } },
{ "type": "Feature", "properties": { "loja_id": "AG10", "nome": "Dia", "tipo": "supermarket" }, "geometry": { "type": "Point", "coordinates": [ -46.678861, -23.533006 ] } },
{ "type": "Feature", "properties": { "loja_id": "AG10", "nome": "Mini Extra", "tipo": "convenience" }, "geometry": { "type": "Point", "coordinates": [ -46.679071, -23.535346 ] } },
{ "type": "Feature", "properties": { "loja_id": "AG10", "nome": "Oba", "tipo": "supermarket" }, "geometry": { "type": "Point", "coordinates": [ -46.677012, -23.532584 ] } },
{ "type": "Feature", "properties": { "loja_id": "AG10", "nome": "Carrefour Express", "tipo": "convenience" }, "geometry": { "type": "Point", "coordinates": [ -46.681106, -23.539583 ] } },
{ "type": "Feature", "properties": { "loja_id": "AG10", "nome": "Pão de Açúcar", "tipo": "supermarket" }, "geometry": { "type": "Point", "coordinates": [ -46.682216, -23.540558 ] } },
{ "type": "Feature", "properties": { "loja_id": "AG10", "nome": "Mercadinho Apíacás", "tipo": "convenience" }, "geometry": { "type": "Point", "coordinates": [ -46.676143, -23.533548 ] } },
{ "type": "Feature", "properties": { "loja_id": "AG10", "nome": "St. Marche", "tipo": "supermarket" }, "geometry": { "type": "Point", "coordinates": [ -46.673861, -23.535734 ] } },
{ "type": "Feature", "properties": { "loja_id": "AG11", "nome": "Chocolândia", "tipo": "supermarket" }, "geometry": { "type": "Point", "coordinates": [ -46.699238, -23.526921 ] } },
{ "type": "Feature", "properties": { "loja_id": "AG11", "nome": "Mini Extra", "tipo": "convenience" }, "geometry": { "type": "Point", "coordinates": [ -46.704909, -23.52413 ] } },
{ "type": "Feature", "properties": { "loja_id": "AG11", "nome": "Carrefour Express", "tipo": "convenience" }, "geometry": { "type": "Point", "coordinates": [ -46.703136, -23.524487 ] } },
{ "type": "Feature", "properties": { "loja_id": "AG11", "nome": "Oxxo", "tipo": "convenience" }, "geometry": { "type": "Point", "coordinates": [ -46.696117, -23.522567 ] } },
{ "type": "Feature", "properties": { "loja_id": "AG11", "nome": "Sabonetes Dona Regina", "tipo": "convenience" }, "geometry": { "type": "Point", "coordinates": [ -46.702855, -23.52237 ] } },
{ "type": "Feature", "properties": { "loja_id": "AG11", "nome": "(sem nome)", "tipo": "convenience" }, "geometry": { "type": "Point", "coordinates": [ -46.699429, -23.514543 ] } },
{ "type": "Feature", "properties": { "loja_id": "AG11", "nome": "Dia", "tipo": "supermarket" }, "geometry": { "type": "Point", "coordinates": [ -46.702728, -23.528041 ] } },
{ "type": "Feature", "properties": { "loja_id": "AG11", "nome": "Carrefour Express", "tipo": "convenience" }, "geometry": { "type": "Point", "coordinates": [ -46.704383, -23.523427 ] } },
{ "type": "Feature", "properties": { "loja_id": "AG11", "nome": "Sonda Supermercados", "tipo": "supermarket" }, "geometry": { "type": "Point", "coordinates": [ -46.69997, -23.52153 ] } },
{ "type": "Feature", "properties": { "loja_id": "AG11", "nome": "Pão de Açúcar", "tipo": "supermarket" }, "geometry": { "type": "Point", "coordinates": [ -46.698424, -23.528455 ] } },
{ "type": "Feature", "properties": { "loja_id": "AG11", "nome": "BR", "tipo": "convenience" }, "geometry": { "type": "Point", "coordinates": [ -46.697785, -23.516239 ] } },
{ "type": "Feature", "properties": { "loja_id": "AG12", "nome": "Dia", "tipo": "supermarket" }, "geometry": { "type": "Point", "coordinates": [ -46.641987, -23.646572 ] } },
{ "type": "Feature", "properties": { "loja_id": "AG12", "nome": "Assaí Atacadista", "tipo": "supermarket" }, "geometry": { "type": "Point", "coordinates": [ -46.644748, -23.641468 ] } },
{ "type": "Feature", "properties": { "loja_id": "AG12", "nome": "Mercado Queiroz", "tipo": "convenience" }, "geometry": { "type": "Point", "coordinates": [ -46.645152, -23.644985 ] } },
{ "type": "Feature", "properties": { "loja_id": "AG12", "nome": "Pão de Açúcar", "tipo": "supermarket" }, "geometry": { "type": "Point", "coordinates": [ -46.641874, -23.645537 ] } },
{ "type": "Feature", "properties": { "loja_id": "AG13", "nome": "Extra", "tipo": "supermarket" }, "geometry": { "type": "Point", "coordinates": [ -46.469709, -23.540215 ] } },
{ "type": "Feature", "properties": { "loja_id": "AG15", "nome": "(sem nome)", "tipo": "convenience" }, "geometry": { "type": "Point", "coordinates": [ -46.712145, -23.563465 ] } },
{ "type": "Feature", "properties": { "loja_id": "AG15", "nome": "ampm", "tipo": "convenience" }, "geometry": { "type": "Point", "coordinates": [ -46.715864, -23.569218 ] } },
{ "type": "Feature", "properties": { "loja_id": "AG15", "nome": "BR Mania", "tipo": "convenience" }, "geometry": { "type": "Point", "coordinates": [ -46.70113, -23.573628 ] } },
{ "type": "Feature", "properties": { "loja_id": "AG15", "nome": "Oxxo", "tipo": "convenience" }, "geometry": { "type": "Point", "coordinates": [ -46.706454, -23.572955 ] } },
{ "type": "Feature", "properties": { "loja_id": "AG15", "nome": "Recanto Supermercado e Hortifruti", "tipo": "supermarket" }, "geometry": { "type": "Point", "coordinates": [ -46.71024, -23.57895 ] } },
{ "type": "Feature", "properties": { "loja_id": "AG15", "nome": "Supermercado Padrão", "tipo": "supermarket" }, "geometry": { "type": "Point", "coordinates": [ -46.710386, -23.570281 ] } }
]
}
