{
"type": "FeatureCollection",
"name": "isocronas",
"crs": { "type": "name", "properties": { "name": "urn:ogc:def:crs:OGC:1.3:CRS84" } },
"features": [
{ "type": "Feature", "properties": { "loja_id": "AG01", "metodo_area": "valhalla_osm", "concorrentes_ok": true }, "geometry": { "type": "Polygon", "coordinates": [ [ [ -46.681999, -23.578459 ], [ -46.682977, -23.578822 ], [ -46.683999, -23.578706 ], [ -46.685999, -23.577826 ], [ -46.68647, -23.578329 ], [ -46.686695, -23.579104 ], [ -46.687221, -23.579799 ], [ -46.687323, -23.580475 ], [ -46.68794, -23.580859 ], [ -46.687591, -23.581391 ], [ -46.687618, -23.581799 ], [ -46.688683, -23.582799 ], [ -46.688816, -23.583982 ], [ -46.691011, -23.584788 ], [ -46.690754, -23.585554 ], [ -46.691046, -23.586799 ], [ -46.690497, -23.587799 ], [ -46.691029, -23.58877 ], [ -46.691115, -23.589915 ], [ -46.690999, -23.590697 ], [ -46.689933, -23.591799 ], [ -46.689647, -23.592447 ], [ -46.688999, -23.592786 ], [ -46.688189, -23.59161 ], [ -46.686999, -23.591693 ], [ -46.683999, -23.594535 ], [ -46.682999, -23.594553 ], [ -46.682346, -23.594799 ], [ -46.681243, -23.595799 ], [ -46.679999, -23.596353 ], [ -46.67871, -23.595089 ], [ -46.677986, -23.593813 ], [ -46.676999, -23.593169 ], [ -46.676534, -23.592265 ], [ -46.676018, -23.591799 ], [ -46.675708, -23.590799 ], [ -46.674894, -23.589799 ], [ -46.674519, -23.588799 ], [ -46.67452, -23.587799 ], [ -46.673863, -23.586799 ], [ -46.674297, -23.585799 ], [ -46.673033, -23.584799 ], [ -46.67288, -23.583799 ], [ -46.673753, -23.583553 ], [ -46.674168, -23.582968 ], [ -46.675999, -23.581675 ], [ -46.676999, -23.581958 ], [ -46.678999, -23.580687 ], [ -46.679999, -23.58072 ], [ -46.681287, -23.579799 ], [ -46.681326, -23.578799 ], [ -46.681999, -23.578459 ] ] ] } },
{ "type": "Feature", "properties": { "loja_id": "AG02", "metodo_area": "valhalla_osm", "concorrentes_ok": true }, "geometry": { "type": "Polygon", "coordinates": [ [ [ -46.655899, -23.553329 ], [ -46.656269, -23.554029 ], [ -46.657796, -23.555399 ], [ -46.658017, -23.557399 ], [ -46.657461, -23.558399 ], [ -46.657544, -23.558755 ], [ -46.658991, -23.559399 ], [ -46.659026, -23.560399 ], [ -46.658731, -23.561568 ], [ -46.659499, -23.562399 ], [ -46.659578, -23.563399 ], [ -46.660975, -23.564324 ], [ -46.661649, -23.565399 ], [ -46.66213, -23.568399 ], [ -46.661939, -23.569439 ], [ -46.661349, -23.569849 ], [ -46.659899, -23.570157 ], [ -46.657899, -23.569536 ], [ -46.656783, -23.569516 ], [ -46.656324, -23.566975 ], [ -46.654906, -23.566392 ], [ -46.654646, -23.565653 ], [ -46.655017, -23.564282 ], [ -46.653416, -23.563883 ], [ -46.652317, -23.562982 ], [ -46.652015, -23.561515 ], [ -46.65226, -23.559399 ], [ -46.651991, -23.559308 ], [ -46.651998, -23.558301 ], [ -46.650158, -23.558141 ], [ -46.649073, -23.557399 ], [ -46.648064, -23.555399 ], [ -46.648675, -23.554175 ], [ -46.648899, -23.554086 ], [ -46.650899, -23.554867 ], [ -46.651277, -23.554777 ], [ -46.651899, -23.553813 ], [ -46.652894, -23.554399 ], [ -46.6529, -23.5554 ], [ -46.652907, -23.554407 ], [ -46.653899, -23.554175 ], [ -46.654899, -23.553538 ], [ -46.655899, -23.553329 ] ] ] } },
{ "type": "Feature", "properties": { "loja_id": "AG03", "metodo_area": "valhalla_osm", "concorrentes_ok": true }, "geometry": { "type": "Polygon", "coordinates": [ [ [ -46.693699, -23.558024 ], [ -46.695699, -23.558334 ], [ -46.696699, -23.557778 ], [ -46.698402, -23.558497 ], [ -46.698796, -23.559199 ], [ -46.698809, -23.560309 ], [ -46.69856, -23.56106 ], [ -46.698699, -23.561398 ], [ -46.700606, -23.562293 ], [ -46.701994, -23.563905 ], [ -46.702942, -23.564199 ], [ -46.703394, -23.565199 ], [ -46.702786, -23.566199 ], [ -46.703306, -23.566593 ], [ -46.703449, -23.567199 ], [ -46.702565, -23.568065 ], [ -46.702384, -23.569199 ], [ -46.701871, -23.570199 ], [ -46.702442, -23.572199 ], [ -46.700699, -23.572544 ], [ -46.699699, -23.573124 ], [ -46.698837, -23.573337 ], [ -46.698699, -23.573603 ], [ -46.697298, -23.573798 ], [ -46.696699, -23.574324 ], [ -46.695699, -23.574388 ], [ -46.692699, -23.575353 ], [ -46.690806, -23.575306 ], [ -46.689699, -23.575774 ], [ -46.687946, -23.575952 ], [ -46.687457, -23.575441 ], [ -46.686124, -23.571775 ], [ -46.685699, -23.571404 ], [ -46.684699, -23.571574 ], [ -46.684445, -23.571199 ], [ -46.684539, -23.570199 ], [ -46.683991, -23.569199 ], [ -46.683007, -23.566199 ], [ -46.683935, -23.565199 ], [ -46.683994, -23.564199 ], [ -46.684853, -23.563353 ], [ -46.684474, -23.562199 ], [ -46.684699, -23.561605 ], [ -46.686699, -23.561256 ], [ -46.687699, -23.560254 ], [ -46.688795, -23.560295 ], [ -46.690753, -23.559253 ], [ -46.691699, -23.559114 ], [ -46.692699, -23.558384 ], [ -46.693699, -23.558024 ] ] ] } },
{ "type": "Feature", "properties": { "loja_id": "AG04", "metodo_area": "valhalla_osm", "concorrentes_ok": true }, "geometry": { "type": "Polygon", "coordinates": [ [ [ -46.636499, -23.579636 ], [ -46.639499, -23.579966 ], [ -46.639921, -23.580578 ], [ -46.640373, -23.581999 ], [ -46.640299, -23.582999 ], [ -46.639499, -23.583465 ], [ -46.639227, -23.583999 ], [ -46.639499, -23.584348 ], [ -46.640808, -23.584691 ], [ -46.64115, -23.585349 ], [ -46.641982, -23.585999 ], [ -46.64214, -23.587359 ], [ -46.642632, -23.587867 ], [ -46.642869, -23.58863 ], [ -46.643055, -23.590444 ], [ -46.643781, -23.591999 ], [ -46.64357, -23.592999 ], [ -46.643912, -23.593999 ], [ -46.642934, -23.595434 ], [ -46.641499, -23.596782 ], [ -46.640499, -23.597396 ], [ -46.638604, -23.598104 ], [ -46.637499, -23.599353 ], [ -46.636499, -23.599787 ], [ -46.635499, -23.598547 ], [ -46.634499, -23.599393 ], [ -46.632499, -23.597299 ], [ -46.631499, -23.597595 ], [ -46.629499, -23.59579 ], [ -46.627237, -23.595262 ], [ -46.626276, -23.594223 ], [ -46.625559, -23.59394 ], [ -46.624913, -23.592586 ], [ -46.624466, -23.589999 ], [ -46.623625, -23.588999 ], [ -46.625771, -23.587271 ], [ -46.626135, -23.585999 ], [ -46.62606, -23.585439 ], [ -46.625671, -23.584999 ], [ -46.625645, -23.583999 ], [ -46.627499, -23.582647 ], [ -46.628499, -23.582978 ], [ -46.629499, -23.580777 ], [ -46.631499, -23.581632 ], [ -46.632499, -23.581754 ], [ -46.633782, -23.581282 ], [ -46.634844, -23.580344 ], [ -46.636499, -23.579636 ] ] ] } },
{ "type": "Feature", "properties": { "loja_id": "AG05", "metodo_area": "valhalla_osm", "concorrentes_ok": true }, "geometry": { "type": "Polygon", "coordinates": [ [ [ -46.596999, -23.547837 ], [ -46.597999, -23.547617 ], [ -46.599173, -23.547826 ], [ -46.599531, -23.548468 ], [ -46.599999, -23.548799 ], [ -46.600541, -23.548541 ], [ -46.600999, -23.54755 ], [ -46.602999, -23.547271 ], [ -46.603629, -23.547999 ], [ -46.603804, -23.549195 ], [ -46.604937, -23.548937 ], [ -46.605777, -23.549221 ], [ -46.608188, -23.552999 ], [ -46.609785, -23.553999 ], [ -46.610145, -23.554999 ], [ -46.609296, -23.555296 ], [ -46.608776, -23.555776 ], [ -46.60814, -23.556999 ], [ -46.607718, -23.557281 ], [ -46.607247, -23.556752 ], [ -46.607366, -23.555999 ], [ -46.606875, -23.555875 ], [ -46.606928, -23.556999 ], [ -46.607461, -23.557538 ], [ -46.607175, -23.558999 ], [ -46.605861, -23.560861 ], [ -46.603999, -23.561683 ], [ -46.602999, -23.562619 ], [ -46.601999, -23.562539 ], [ -46.600975, -23.562975 ], [ -46.597841, -23.563158 ], [ -46.596608, -23.562391 ], [ -46.59577, -23.562228 ], [ -46.595369, -23.56163 ], [ -46.594999, -23.561502 ], [ -46.59447, -23.561999 ], [ -46.594373, -23.562999 ], [ -46.593999, -23.563506 ], [ -46.590999, -23.56337 ], [ -46.590432, -23.562999 ], [ -46.590266, -23.561733 ], [ -46.589554, -23.560999 ], [ -46.589857, -23.559999 ], [ -46.589524, -23.558999 ], [ -46.589534, -23.557999 ], [ -46.589999, -23.556889 ], [ -46.590698, -23.555999 ], [ -46.590675, -23.553999 ], [ -46.592706, -23.551706 ], [ -46.593448, -23.551448 ], [ -46.59378, -23.550999 ], [ -46.594707, -23.550707 ], [ -46.594807, -23.549192 ], [ -46.594444, -23.548999 ], [ -46.594536, -23.548536 ], [ -46.594999, -23.548052 ], [ -46.596999, -23.547837 ] ] ] } },
{ "type": "Feature", "properties": { "loja_id": "AG06", "metodo_area": "valhalla_osm", "concorrentes_ok": true }, "geometry": { "type": "Polygon", "coordinates": [ [ [ -46.575299, -23.531055 ], [ -46.576314, -23.531485 ], [ -46.577299, -23.531602 ], [ -46.577819, -23.53198 ], [ -46.578299, -23.532756 ], [ -46.580646, -23.534499 ], [ -46.581299, -23.535328 ], [ -46.582189, -23.534389 ], [ -46.583299, -23.534446 ], [ -46.583631, -23.535499 ], [ -46.583064, -23.536264 ], [ -46.583299, -23.538071 ], [ -46.585203, -23.540499 ], [ -46.585027, -23.541499 ], [ -46.587526, -23.542499 ], [ -46.58757, -23.543499 ], [ -46.586299, -23.54393 ], [ -46.584656, -23.543143 ], [ -46.583257, -23.543542 ], [ -46.582191, -23.543499 ], [ -46.581299, -23.544027 ], [ -46.579299, -23.547353 ], [ -46.578299, -23.546871 ], [ -46.577299, -23.54696 ], [ -46.575299, -23.548123 ], [ -46.573299, -23.548658 ], [ -46.572565, -23.547234 ], [ -46.570634, -23.544499 ], [ -46.569299, -23.544006 ], [ -46.567613, -23.542186 ], [ -46.567372, -23.541499 ], [ -46.566255, -23.540544 ], [ -46.564862, -23.538499 ], [ -46.566299, -23.53786 ], [ -46.568032, -23.537499 ], [ -46.570253, -23.535453 ], [ -46.572299, -23.534544 ], [ -46.572157, -23.533499 ], [ -46.572916, -23.532499 ], [ -46.573299, -23.532158 ], [ -46.574299, -23.532385 ], [ -46.575299, -23.531055 ] ] ] } },
{ "type": "Feature", "properties": { "loja_id": "AG07", "metodo_area": "valhalla_osm", "concorrentes_ok": false }, "geometry": { "type": "Polygon", "coordinates": [ [ [ -46.622199, -23.495065 ], [ -46.623419, -23.495419 ], [ -46.624199, -23.495158 ], [ -46.625199, -23.495748 ], [ -46.626199, -23.495043 ], [ -46.627199, -23.49616 ], [ -46.628199, -23.495606 ], [ -46.629146, -23.496253 ], [ -46.629332, -23.497199 ], [ -46.630199, -23.498113 ], [ -46.630173, -23.499226 ], [ -46.631866, -23.499533 ], [ -46.632608, -23.500199 ], [ -46.631843, -23.500843 ], [ -46.632082, -23.502317 ], [ -46.632429, -23.502429 ], [ -46.633199, -23.502166 ], [ -46.634923, -23.503199 ], [ -46.63484, -23.504199 ], [ -46.634199, -23.50471 ], [ -46.632662, -23.505662 ], [ -46.631199, -23.505936 ], [ -46.63091, -23.506199 ], [ -46.631495, -23.507199 ], [ -46.631199, -23.507487 ], [ -46.630199, -23.507721 ], [ -46.630029, -23.508029 ], [ -46.62976, -23.510199 ], [ -46.629378, -23.511378 ], [ -46.627199, -23.511546 ], [ -46.626199, -23.512421 ], [ -46.625199, -23.512715 ], [ -46.623199, -23.511823 ], [ -46.622127, -23.510199 ], [ -46.620963, -23.509435 ], [ -46.620368, -23.50803 ], [ -46.61983, -23.507569 ], [ -46.618734, -23.507199 ], [ -46.618508, -23.506891 ], [ -46.618225, -23.506199 ], [ -46.619199, -23.506016 ], [ -46.619692, -23.505692 ], [ -46.619894, -23.505199 ], [ -46.619631, -23.504768 ], [ -46.618393, -23.504199 ], [ -46.618199, -23.503866 ], [ -46.617199, -23.503563 ], [ -46.616558, -23.502841 ], [ -46.615143, -23.502143 ], [ -46.615057, -23.501199 ], [ -46.615317, -23.500317 ], [ -46.616102, -23.500102 ], [ -46.618692, -23.497692 ], [ -46.620416, -23.497199 ], [ -46.620826, -23.496826 ], [ -46.620989, -23.495989 ], [ -46.622199, -23.495065 ] ] ] } },
{ "type": "Feature", "properties": { "loja_id": "AG08", "metodo_area": "valhalla_osm", "concorrentes_ok": true }, "geometry": { "type": "Polygon", "coordinates": [ [ [ -46.694999, -23.59992 ], [ -46.695999, -23.60002 ], [ -46.696371, -23.601999 ], [ -46.696616, -23.602383 ], [ -46.6973, -23.602699 ], [ -46.697363, -23.604999 ], [ -46.697541, -23.605458 ], [ -46.698164, -23.605834 ], [ -46.698049, -23.607999 ], [ -46.698259, -23.60974 ], [ -46.698496, -23.609999 ], [ -46.698487, -23.612512 ], [ -46.699507, -23.613999 ], [ -46.69913, -23.61413 ], [ -46.698999, -23.615199 ], [ -46.698417, -23.614582 ], [ -46.697731, -23.614731 ], [ -46.697642, -23.615357 ], [ -46.698292, -23.615999 ], [ -46.696999, -23.617335 ], [ -46.696504, -23.616495 ], [ -46.694873, -23.615999 ], [ -46.695359, -23.615359 ], [ -46.69539, -23.614999 ], [ -46.694999, -23.614651 ], [ -46.692354, -23.615354 ], [ -46.689999, -23.615073 ], [ -46.688529, -23.61447 ], [ -46.687999, -23.613937 ], [ -46.686368, -23.61363 ], [ -46.685769, -23.612999 ], [ -46.686434, -23.605999 ], [ -46.687191, -23.605191 ], [ -46.687484, -23.604484 ], [ -46.689188, -23.603999 ], [ -46.68854, -23.603459 ], [ -46.687782, -23.601999 ], [ -46.687999, -23.601542 ], [ -46.688999, -23.600837 ], [ -46.690141, -23.600858 ], [ -46.691999, -23.601015 ], [ -46.694046, -23.602046 ], [ -46.694497, -23.600497 ], [ -46.694999, -23.59992 ] ] ] } },
{ "type": "Feature", "properties": { "loja_id": "AG09", "metodo_area": "valhalla_osm", "concorrentes_ok": true }, "geometry": { "type": "Polygon", "coordinates": [ [ [ -46.641499, -23.535172 ], [ -46.646499, -23.534829 ], [ -46.647452, -23.535199 ], [ -46.647871, -23.536828 ], [ -46.648499, -23.537254 ], [ -46.650686, -23.538012 ], [ -46.651331, -23.539199 ], [ -46.651204, -23.540199 ], [ -46.652226, -23.541199 ], [ -46.651406, -23.543199 ], [ -46.651366, -23.544199 ], [ -46.649816, -23.547199 ], [ -46.649934, -23.548199 ], [ -46.648499, -23.548806 ], [ -46.64731, -23.54901 ], [ -46.647159, -23.54954 ], [ -46.647348, -23.550199 ], [ -46.646499, -23.550895 ], [ -46.645499, -23.550585 ], [ -46.645342, -23.550199 ], [ -46.644499, -23.549779 ], [ -46.643997, -23.550199 ], [ -46.643499, -23.551198 ], [ -46.642378, -23.551078 ], [ -46.641499, -23.551236 ], [ -46.640637, -23.550062 ], [ -46.639721, -23.550421 ], [ -46.639334, -23.550365 ], [ -46.638136, -23.549563 ], [ -46.637266, -23.549433 ], [ -46.635143, -23.548556 ], [ -46.63474, -23.548199 ], [ -46.634499, -23.547506 ], [ -46.634774, -23.545199 ], [ -46.633677, -23.544199 ], [ -46.634265, -23.542199 ], [ -46.634029, -23.541199 ], [ -46.634744, -23.540199 ], [ -46.634018, -23.539199 ], [ -46.634879, -23.537579 ], [ -46.635499, -23.536716 ], [ -46.636499, -23.53608 ], [ -46.641499, -23.535172 ] ] ] } },
{ "type": "Feature", "properties": { "loja_id": "AG10", "metodo_area": "valhalla_osm", "concorrentes_ok": true }, "geometry": { "type": "Polygon", "coordinates": [ [ [ -46.674999, -23.52768 ], [ -46.676999, -23.527194 ], [ -46.677999, -23.528093 ], [ -46.678999, -23.52752 ], [ -46.680263, -23.527736 ], [ -46.680999, -23.529029 ], [ -46.68234, -23.529999 ], [ -46.681891, -23.531107 ], [ -46.684663, -23.531336 ], [ -46.685222, -23.531777 ], [ -46.684639, -23.532999 ], [ -46.684917, -23.534917 ], [ -46.684665, -23.535999 ], [ -46.682841, -23.539841 ], [ -46.682729, -23.540729 ], [ -46.681999, -23.541172 ], [ -46.680999, -23.540935 ], [ -46.679999, -23.541034 ], [ -46.679137, -23.541999 ], [ -46.677414, -23.542414 ], [ -46.676999, -23.54354 ], [ -46.675999, -23.543524 ], [ -46.675477, -23.542522 ], [ -46.674601, -23.541999 ], [ -46.674403, -23.541596 ], [ -46.672067, -23.540932 ], [ -46.671637, -23.540362 ], [ -46.671143, -23.538999 ], [ -46.671454, -23.537999 ], [ -46.670709, -23.536709 ], [ -46.670966, -23.536033 ], [ -46.670571, -23.535428 ], [ -46.670595, -23.533999 ], [ -46.669937, -23.532999 ], [ -46.670494, -23.532494 ], [ -46.670801, -23.531801 ], [ -46.672276, -23.530999 ], [ -46.67177, -23.529999 ], [ -46.671999, -23.529248 ], [ -46.672999, -23.529416 ], [ -46.674287, -23.529287 ], [ -46.674478, -23.528999 ], [ -46.67432, -23.527999 ], [ -46.674999, -23.52768 ] ] ] } },
{ "type": "Feature", "properties": { "loja_id": "AG11", "metodo_area": "valhalla_osm", "concorrentes_ok": true }, "geometry": { "type": "Polygon", "coordinates": [ [ [ -46.702599, -23.513521 ], [ -46.704147, -23.514052 ], [ -46.705872, -23.514327 ], [ -46.707599, -23.515229 ], [ -46.707882, -23.515599 ], [ -46.707264, -23.516264 ], [ -46.707242, -23.516599 ], [ -46.707973, -23.517226 ], [ -46.708211, -23.517988 ], [ -46.709896, -23.518303 ], [ -46.710318, -23.518599 ], [ -46.710599, -23.519826 ], [ -46.711599, -23.519233 ], [ -46.71231, -23.519889 ], [ -46.713053, -23.520146 ], [ -46.713529, -23.520599 ], [ -46.712935, -23.522599 ], [ -46.71446, -23.523739 ], [ -46.714432, -23.524599 ], [ -46.713599, -23.526665 ], [ -46.712599, -23.527437 ], [ -46.712189, -23.528189 ], [ -46.71065, -23.529599 ], [ -46.708314, -23.529314 ], [ -46.707575, -23.530575 ], [ -46.706873, -23.530873 ], [ -46.706599, -23.53139 ], [ -46.705599, -23.530832 ], [ -46.702599, -23.531952 ], [ -46.701599, -23.531322 ], [ -46.700599, -23.530005 ], [ -46.697599, -23.528044 ], [ -46.696599, -23.526911 ], [ -46.695274, -23.525925 ], [ -46.693941, -23.524258 ], [ -46.692016, -23.522599 ], [ -46.692273, -23.522273 ], [ -46.693599, -23.521925 ], [ -46.695293, -23.520599 ], [ -46.695572, -23.519599 ], [ -46.696141, -23.519141 ], [ -46.696347, -23.518599 ], [ -46.696408, -23.517599 ], [ -46.695951, -23.515599 ], [ -46.697308, -23.514308 ], [ -46.698599, -23.513841 ], [ -46.700599, -23.514312 ], [ -46.702599, -23.513521 ] ] ] } },
{ "type": "Feature", "properties": { "loja_id": "AG12", "metodo_area": "valhalla_osm", "concorrentes_ok": true }, "geometry": { "type": "Polygon", "coordinates": [ [ [ -46.639999, -23.635987 ], [ -46.640999, -23.635619 ], [ -46.641999, -23.636076 ], [ -46.642999, -23.636946 ], [ -46.643999, -23.636697 ], [ -46.644999, -23.636905 ], [ -46.646337, -23.637999 ], [ -46.646469, -23.638999 ], [ -46.647875, -23.640124 ], [ -46.648693, -23.640305 ], [ -46.649287, -23.640712 ], [ -46.650256, -23.642743 ], [ -46.650164, -23.643999 ], [ -46.650548, -23.644999 ], [ -46.650285, -23.646999 ], [ -46.649733, -23.647733 ], [ -46.649886, -23.648999 ], [ -46.649585, -23.650585 ], [ -46.648868, -23.651868 ], [ -46.64834, -23.65234 ], [ -46.647999, -23.652528 ], [ -46.646999, -23.652231 ], [ -46.6465, -23.6525 ], [ -46.645727, -23.653727 ], [ -46.644999, -23.654379 ], [ -46.644718, -23.653999 ], [ -46.644692, -23.652999 ], [ -46.643999, -23.652454 ], [ -46.643526, -23.652526 ], [ -46.643463, -23.653999 ], [ -46.642999, -23.654697 ], [ -46.638999, -23.653859 ], [ -46.636999, -23.655134 ], [ -46.635999, -23.65366 ], [ -46.634931, -23.653068 ], [ -46.633484, -23.650515 ], [ -46.632712, -23.649999 ], [ -46.632495, -23.648999 ], [ -46.632622, -23.647999 ], [ -46.631999, -23.647501 ], [ -46.631539, -23.647539 ], [ -46.630999, -23.648031 ], [ -46.630666, -23.646999 ], [ -46.631239, -23.646239 ], [ -46.631277, -23.643999 ], [ -46.631854, -23.642854 ], [ -46.631963, -23.641999 ], [ -46.632999, -23.640516 ], [ -46.634291, -23.639291 ], [ -46.635145, -23.638999 ], [ -46.635408, -23.637999 ], [ -46.635999, -23.637423 ], [ -46.637365, -23.637634 ], [ -46.637999, -23.638474 ], [ -46.638323, -23.638323 ], [ -46.638647, -23.637999 ], [ -46.638663, -23.636999 ], [ -46.638999, -23.636362 ], [ -46.639999, -23.635987 ] ] ] } },
{ "type": "Feature", "properties": { "loja_id": "AG13", "metodo_area": "valhalla_osm", "concorrentes_ok": true }, "geometry": { "type": "Polygon", "coordinates": [ [ [ -46.466999, -23.535834 ], [ -46.467999, -23.535438 ], [ -46.46885, -23.535999 ], [ -46.468999, -23.536888 ], [ -46.469504, -23.536504 ], [ -46.470342, -23.536342 ], [ -46.470999, -23.535803 ], [ -46.47223, -23.535768 ], [ -46.473699, -23.5373 ], [ -46.474999, -23.537917 ], [ -46.475233, -23.538766 ], [ -46.476142, -23.539999 ], [ -46.476437, -23.540999 ], [ -46.476999, -23.541482 ], [ -46.477912, -23.541999 ], [ -46.479414, -23.542414 ], [ -46.479594, -23.541999 ], [ -46.48052, -23.541999 ], [ -46.479598, -23.542598 ], [ -46.479702, -23.542999 ], [ -46.478041, -23.543999 ], [ -46.476999, -23.545553 ], [ -46.475999, -23.546326 ], [ -46.475137, -23.544862 ], [ -46.473267, -23.544999 ], [ -46.473513, -23.545999 ], [ -46.472999, -23.547191 ], [ -46.47223, -23.546768 ], [ -46.471298, -23.546701 ], [ -46.467179, -23.54682 ], [ -46.466636, -23.546363 ], [ -46.465999, -23.546185 ], [ -46.465118, -23.546118 ], [ -46.464999, -23.546376 ], [ -46.464382, -23.545617 ], [ -46.461999, -23.545958 ], [ -46.461447, -23.544552 ], [ -46.460791, -23.543999 ], [ -46.461193, -23.542806 ], [ -46.4602, -23.540999 ], [ -46.460369, -23.539999 ], [ -46.462614, -23.538614 ], [ -46.464372, -23.538372 ], [ -46.464999, -23.537235 ], [ -46.465896, -23.536896 ], [ -46.466999, -23.535834 ] ] ] } },
{ "type": "Feature", "properties": { "loja_id": "AG14", "metodo_area": "valhalla_osm", "concorrentes_ok": true }, "geometry": { "type": "Polygon", "coordinates": [ [ [ -46.772999, -23.663489 ], [ -46.773999, -23.664242 ], [ -46.774771, -23.663771 ], [ -46.776733, -23.663733 ], [ -46.776999, -23.663412 ], [ -46.779148, -23.664851 ], [ -46.779296, -23.664999 ], [ -46.778032, -23.665999 ], [ -46.776999, -23.66641 ], [ -46.776662, -23.666999 ], [ -46.776999, -23.667299 ], [ -46.778348, -23.667651 ], [ -46.778999, -23.668388 ], [ -46.780343, -23.668343 ], [ -46.780999, -23.668096 ], [ -46.781999, -23.668441 ], [ -46.782999, -23.668483 ], [ -46.785051, -23.667948 ], [ -46.785402, -23.668999 ], [ -46.78639, -23.669999 ], [ -46.786597, -23.671402 ], [ -46.786954, -23.671999 ], [ -46.785884, -23.672884 ], [ -46.785254, -23.672745 ], [ -46.784702, -23.672999 ], [ -46.784098, -23.675098 ], [ -46.783543, -23.675543 ], [ -46.783386, -23.676387 ], [ -46.782999, -23.676676 ], [ -46.782753, -23.676246 ], [ -46.781295, -23.676295 ], [ -46.780999, -23.676572 ], [ -46.780127, -23.675872 ], [ -46.779193, -23.675806 ], [ -46.778999, -23.675605 ], [ -46.778339, -23.676339 ], [ -46.776999, -23.677131 ], [ -46.775999, -23.676872 ], [ -46.774999, -23.675917 ], [ -46.77368, -23.672999 ], [ -46.773656, -23.672656 ], [ -46.773999, -23.672683 ], [ -46.774282, -23.671999 ], [ -46.773781, -23.671781 ], [ -46.773403, -23.671999 ], [ -46.77338, -23.67238 ], [ -46.772999, -23.672406 ], [ -46.77175, -23.671249 ], [ -46.771131, -23.670999 ], [ -46.770913, -23.669999 ], [ -46.771803, -23.668999 ], [ -46.770341, -23.667658 ], [ -46.7701, -23.666999 ], [ -46.770429, -23.66557 ], [ -46.770263, -23.665263 ], [ -46.770867, -23.664867 ], [ -46.771999, -23.665221 ], [ -46.7723, -23.664999 ], [ -46.772999, -23.663489 ] ] ] } },
{ "type": "Feature", "properties": { "loja_id": "AG15", "metodo_area": "valhalla_osm", "concorrentes_ok": true }, "geometry": { "type": "Polygon", "coordinates": [ [ [ -46.706499, -23.562146 ], [ -46.708499, -23.562041 ], [ -46.710499, -23.563008 ], [ -46.711499, -23.562598 ], [ -46.714278, -23.563921 ], [ -46.714647, -23.564699 ], [ -46.714091, -23.565291 ], [ -46.713909, -23.566109 ], [ -46.71333, -23.566699 ], [ -46.715183, -23.567016 ], [ -46.715499, -23.567733 ], [ -46.716499, -23.567124 ], [ -46.717499, -23.567454 ], [ -46.718363, -23.568699 ], [ -46.718315, -23.569884 ], [ -46.719269, -23.570699 ], [ -46.716488, -23.571711 ], [ -46.715793, -23.571406 ], [ -46.715214, -23.571699 ], [ -46.715691, -23.572507 ], [ -46.716204, -23.574699 ], [ -46.715499, -23.575312 ], [ -46.714499, -23.575151 ], [ -46.714236, -23.575436 ], [ -46.714258, -23.575941 ], [ -46.714499, -23.576163 ], [ -46.715499, -23.576328 ], [ -46.715635, -23.576699 ], [ -46.715368, -23.577568 ], [ -46.714499, -23.578409 ], [ -46.712499, -23.578253 ], [ -46.711499, -23.579068 ], [ -46.710499, -23.579298 ], [ -46.70817, -23.579029 ], [ -46.706499, -23.578399 ], [ -46.705988, -23.577699 ], [ -46.705732, -23.576699 ], [ -46.704923, -23.576276 ], [ -46.704499, -23.575756 ], [ -46.703125, -23.577325 ], [ -46.702499, -23.577537 ], [ -46.70222, -23.57742 ], [ -46.701499, -23.578191 ], [ -46.7013, -23.5775 ], [ -46.701867, -23.577067 ], [ -46.701499, -23.576144 ], [ -46.700499, -23.576465 ], [ -46.699499, -23.576302 ], [ -46.699186, -23.575699 ], [ -46.699981, -23.575181 ], [ -46.700107, -23.574699 ], [ -46.699499, -23.574085 ], [ -46.699104, -23.574095 ], [ -46.69856, -23.573699 ], [ -46.697067, -23.571699 ], [ -46.698175, -23.570375 ], [ -46.700499, -23.568766 ], [ -46.701499, -23.56946 ], [ -46.701575, -23.570624 ], [ -46.703183, -23.570383 ], [ -46.703343, -23.568543 ], [ -46.704131, -23.568331 ], [ -46.704323, -23.567699 ], [ -46.704267, -23.565467 ], [ -46.704499, -23.564926 ], [ -46.70534, -23.56454 ], [ -46.70545, -23.56365 ], [ -46.706309, -23.563509 ], [ -46.706499, -23.562146 ] ] ] } }
]
}
