{
"type": "FeatureCollection",
"name": "lojas",
"crs": { "type": "name", "properties": { "name": "urn:ogc:def:crs:OGC:1.3:CRS84" } },
"features": [
{ "type": "Feature", "properties": { "loja_id": "AG01", "nome": "Faria Lima", "lat": -23.5868, "lon": -46.682, "pop": 19424.095014993756, "domicilios": 9379.8041958061858, "pop_0_14": 2102.7421009157979, "pop_15_29": 3199.3249874236758, "pop_30_59": 8641.8222909146061, "pop_60_mais": 5157.8443982586305, "renda_media_resp": 19034.102743560015, "area_km2": 2.3712221986598525, "densidade_hab_km2": 8191.5963109537788, "pct_0_14": 0.11008121699357083, "pct_15_29": 0.1674887224734565, "pct_30_59": 0.4524103618849557, "pct_60_mais": 0.27001969864801706, "empregos": 108083.374553, "empregos_por_morador": 5.5643969240043765, "concorrentes": 4.0, "metodo_area": "valhalla_osm", "cluster": 3, "perfil_chave": "corporativa", "perfil": "Corporativa (quem trabalha)", "perfil_en": "Business district (workers)", "potencial_total_mes": 12936796.481962759 }, "geometry": { "type": "Point", "coordinates": [ -46.682, -23.5868 ] } },
{ "type": "Feature", "properties": { "loja_id": "AG02", "nome": "Paulista", "lat": -23.5614, "lon": -46.6559, "pop": 24920.714823070248, "domicilios": 13405.619579782662, "pop_0_14": 1748.5156152181937, "pop_15_29": 4804.9574695848032, "pop_30_59": 11779.972256662721, "pop_60_mais": 5619.0529516658098, "renda_media_resp": 10694.331856713185, "area_km2": 1.2435559599109196, "densidade_hab_km2": 20039.882101369534, "pct_0_14": 0.072999300274225978, "pct_15_29": 0.20060360346472264, "pct_30_59": 0.49180557754347792, "pct_60_mais": 0.23459151871757339, "empregos": 107380.22601500001, "empregos_por_morador": 4.3088742348431035, "concorrentes": 16.0, "metodo_area": "valhalla_osm", "cluster": 0, "perfil_chave": "misto", "perfil": "Misto (mora e trabalha)", "perfil_en": "Mixed (live & work)", "potencial_total_mes": 13999552.057888467 }, "geometry": { "type": "Point", "coordinates": [ -46.6559, -23.5614 ] } },
{ "type": "Feature", "properties": { "loja_id": "AG03", "nome": "Largo da Batata", "lat": -23.5672, "lon": -46.6937, "pop": 24637.052915293214, "domicilios": 12228.092145673776, "pop_0_14": 2117.4572461508901, "pop_15_29": 4721.9149722960701, "pop_30_59": 11562.176851201177, "pop_60_mais": 5830.6321788496398, "renda_media_resp": 12945.4437361978, "area_km2": 2.9272435859505195, "densidade_hab_km2": 8416.4683231488561, "pct_0_14": 0.087382032365829948, "pct_15_29": 0.19486132609662599, "pct_30_59": 0.47714139856551091, "pct_60_mais": 0.24061524297203324, "empregos": 97170.882998999994, "empregos_por_morador": 3.9440952346488691, "concorrentes": 34.0, "metodo_area": "valhalla_osm", "cluster": 3, "perfil_chave": "corporativa", "perfil": "Corporativa (quem trabalha)", "perfil_en": "Business district (workers)", "potencial_total_mes": 14300624.015560618 }, "geometry": { "type": "Point", "coordinates": [ -46.6937, -23.5672 ] } },
{ "type": "Feature", "properties": { "loja_id": "AG04", "nome": "Vila Mariana", "lat": -23.589, "lon": -46.6345, "pop": 44839.094209308147, "domicilios": 20338.841308050487, "pop_0_14": 4441.7136294642705, "pop_15_29": 8593.3528247779941, "pop_30_59": 20314.133544431214, "pop_60_mais": 10605.684691514676, "renda_media_resp": 12541.86099630454, "area_km2": 3.0705034265295819, "densidade_hab_km2": 14603.173480248242, "pct_0_14": 0.10105165013561676, "pct_15_29": 0.19550393284722345, "pct_30_59": 0.46215872678573644, "pct_60_mais": 0.24128569023142349, "empregos": 60767.660261999998, "empregos_por_morador": 1.3552383546897171, "concorrentes": 13.0, "metodo_area": "valhalla_osm", "cluster": 1, "perfil_chave": "residencial", "perfil": "Residencial consolidado", "perfil_en": "Established residential", "potencial_total_mes": 21924815.460457224 }, "geometry": { "type": "Point", "coordinates": [ -46.6345, -23.589 ] } },
{ "type": "Feature", "properties": { "loja_id": "AG05", "nome": "Mooca", "lat": -23.557, "lon": -46.599, "pop": 35999.682661248953, "domicilios": 14373.899972214213, "pop_0_14": 5052.5908662596476, "pop_15_29": 6065.0077608923984, "pop_30_59": 16635.443359087458, "pop_60_mais": 8204.0481098720229, "renda_media_resp": 7490.8696727007846, "area_km2": 2.6169893343732413, "densidade_hab_km2": 13756.144202960893, "pct_0_14": 0.1405172346470285, "pct_15_29": 0.16867348677773791, "pct_30_59": 0.46264709726570585, "pct_60_mais": 0.22816218130952776, "empregos": 26155.350817, "empregos_por_morador": 0.72654392715395621, "concorrentes": 8.0, "metodo_area": "valhalla_osm", "cluster": 1, "perfil_chave": "residencial", "perfil": "Residencial consolidado", "perfil_en": "Established residential", "potencial_total_mes": 11678245.896118982 }, "geometry": { "type": "Point", "coordinates": [ -46.599, -23.557 ] } },
{ "type": "Feature", "properties": { "loja_id": "AG06", "nome": "Tatuapé", "lat": -23.5405, "lon": -46.5763, "pop": 24071.921725859298, "domicilios": 10483.585324882328, "pop_0_14": 2618.8335929595605, "pop_15_29": 4413.9402946389664, "pop_30_59": 11030.010778428546, "pop_60_mais": 5799.3838060817734, "renda_media_resp": 8692.3417588014654, "area_km2": 2.3434527548008091, "densidade_hab_km2": 10271.989344161277, "pct_0_14": 0.1097483489826404, "pct_15_29": 0.18497649531718688, "pct_30_59": 0.46223840852187886, "pct_60_mais": 0.2430367471782939, "empregos": 49065.926261000001, "empregos_por_morador": 2.0383053260052293, "concorrentes": 9.0, "metodo_area": "valhalla_osm", "cluster": 1, "perfil_chave": "residencial", "perfil": "Residencial consolidado", "perfil_en": "Established residential", "potencial_total_mes": 9667742.5383417681 }, "geometry": { "type": "Point", "coordinates": [ -46.5763, -23.5405 ] } },
{ "type": "Feature", "properties": { "loja_id": "AG07", "nome": "Santana", "lat": -23.5022, "lon": -46.6252, "pop": 17650.532364925984, "domicilios": 7454.7246291678575, "pop_0_14": 1820.1256646441293, "pop_15_29": 2953.3002450710583, "pop_30_59": 7402.3025124852384, "pop_60_mais": 4885.5904784207805, "renda_media_resp": 8047.2578857993212, "area_km2": 2.2869532090027485, "densidade_hab_km2": 7717.9245711908097, "pct_0_14": 0.10668141632226673, "pct_15_29": 0.17309917611138068, "pct_30_59": 0.43386461243718488, "pct_60_mais": 0.28635479512916756, "empregos": 39543.354013999997, "empregos_por_morador": 2.2403490838938112, "concorrentes": null, "metodo_area": "valhalla_osm", "cluster": 1, "perfil_chave": "residencial", "perfil": "Residencial consolidado", "perfil_en": "Established residential", "potencial_total_mes": 6739849.0323359938 }, "geometry": { "type": "Point", "coordinates": [ -46.6252, -23.5022 ] } },
{ "type": "Feature", "properties": { "loja_id": "AG08", "nome": "Berrini", "lat": -23.608, "lon": -46.695, "pop": 13959.49580062568, "domicilios": 6174.626382211809, "pop_0_14": 1859.9284063473001, "pop_15_29": 2435.2416405196009, "pop_30_59": 6751.2085149962941, "pop_60_mais": 2784.2638838349444, "renda_media_resp": 15579.773986963548, "area_km2": 1.80257909181641, "densidade_hab_km2": 7744.1793616717678, "pct_0_14": 0.134478814968267, "pct_15_29": 0.17607581499419458, "pct_30_59": 0.48813412258345079, "pct_60_mais": 0.20131124745408752, "empregos": 80986.632123000003, "empregos_por_morador": 5.8015442161865254, "concorrentes": 9.0, "metodo_area": "valhalla_osm", "cluster": 3, "perfil_chave": "corporativa", "perfil": "Corporativa (quem trabalha)", "perfil_en": "Business district (workers)", "potencial_total_mes": 7631903.2038185177 }, "geometry": { "type": "Point", "coordinates": [ -46.695, -23.608 ] } },
{ "type": "Feature", "properties": { "loja_id": "AG09", "nome": "República", "lat": -23.5432, "lon": -46.6425, "pop": 60714.393817757351, "domicilios": 31344.703928615843, "pop_0_14": 6092.5035897526468, "pop_15_29": 12729.621228736427, "pop_30_59": 29858.628151364275, "pop_60_mais": 10512.867346750667, "renda_media_resp": 5818.8617990607163, "area_km2": 2.6026426148235249, "densidade_hab_km2": 23327.979597334826, "pct_0_14": 0.10292500369408354, "pct_15_29": 0.2150505605274784, "pct_30_59": 0.50442307788680441, "pct_60_mais": 0.17760135789163367, "empregos": 192742.96615600001, "empregos_por_morador": 3.1745843783690679, "concorrentes": 50.0, "metodo_area": "valhalla_osm", "cluster": 0, "perfil_chave": "misto", "perfil": "Misto (mora e trabalha)", "perfil_en": "Mixed (live & work)", "potencial_total_mes": 24130519.603149857 }, "geometry": { "type": "Point", "coordinates": [ -46.6425, -23.5432 ] } },
{ "type": "Feature", "properties": { "loja_id": "AG10", "nome": "Perdizes", "lat": -23.536, "lon": -46.678, "pop": 38697.347477577008, "domicilios": 17516.243733226624, "pop_0_14": 4406.0242792201834, "pop_15_29": 6015.0134665659471, "pop_30_59": 17583.737647256832, "pop_60_mais": 10454.7336741654, "renda_media_resp": 12655.052569584273, "area_km2": 1.8982535184223579, "densidade_hab_km2": 20385.763599025722, "pct_0_14": 0.11456267607370166, "pct_15_29": 0.1563986023860745, "pct_30_59": 0.45720130271369513, "pct_60_mais": 0.27183741882652879, "empregos": 29441.013121, "empregos_por_morador": 0.7608018388872636, "concorrentes": 13.0, "metodo_area": "valhalla_osm", "cluster": 1, "perfil_chave": "residencial", "perfil": "Residencial consolidado", "perfil_en": "Established residential", "potencial_total_mes": 19123391.902329173 }, "geometry": { "type": "Point", "coordinates": [ -46.678, -23.536 ] } },
{ "type": "Feature", "properties": { "loja_id": "AG11", "nome": "Lapa", "lat": -23.5226, "lon": -46.7036, "pop": 25028.527083049099, "domicilios": 10512.336147486281, "pop_0_14": 3176.3333255284479, "pop_15_29": 3761.8980223204803, "pop_30_59": 11554.77759953354, "pop_60_mais": 6449.5781171357439, "renda_media_resp": 9585.3597026818006, "area_km2": 2.8928934634170727, "densidade_hab_km2": 8651.7278978830818, "pct_0_14": 0.12734578483428063, "pct_15_29": 0.15082228690190377, "pct_30_59": 0.4632549771058293, "pct_60_mais": 0.25857695115798618, "empregos": 59859.17366, "empregos_por_morador": 2.391637888293491, "concorrentes": 11.0, "metodo_area": "valhalla_osm", "cluster": 1, "perfil_chave": "residencial", "perfil": "Residencial consolidado", "perfil_en": "Established residential", "potencial_total_mes": 10049413.28539259 }, "geometry": { "type": "Point", "coordinates": [ -46.7036, -23.5226 ] } },
{ "type": "Feature", "properties": { "loja_id": "AG12", "nome": "Jabaquara", "lat": -23.646, "lon": -46.641, "pop": 32275.75374839552, "domicilios": 13334.039798666174, "pop_0_14": 3696.3092023090944, "pop_15_29": 5824.6864643429781, "pop_30_59": 14502.908254584592, "pop_60_mais": 8064.3412931427001, "renda_media_resp": 6231.8563269642036, "area_km2": 3.0715161663349542, "densidade_hab_km2": 10508.085258398016, "pct_0_14": 0.11519200185657727, "pct_15_29": 0.18152087860924296, "pct_30_59": 0.45196950340199837, "pct_60_mais": 0.2513176161321814, "empregos": 40431.620129000003, "empregos_por_morador": 1.2526932893398322, "concorrentes": 4.0, "metodo_area": "valhalla_osm", "cluster": 1, "perfil_chave": "residencial", "perfil": "Residencial consolidado", "perfil_en": "Established residential", "potencial_total_mes": 10162172.601592051 }, "geometry": { "type": "Point", "coordinates": [ -46.641, -23.646 ] } },
{ "type": "Feature", "properties": { "loja_id": "AG13", "nome": "Itaquera", "lat": -23.542, "lon": -46.471, "pop": 10930.23854568296, "domicilios": 3856.4048045560362, "pop_0_14": 2113.4780519866454, "pop_15_29": 2585.7542867594548, "pop_30_59": 4527.6815240529431, "pop_60_mais": 1672.4155211765844, "renda_media_resp": 3164.0824980113794, "area_km2": 1.6489656203007708, "densidade_hab_km2": 6628.5424093252395, "pct_0_14": 0.19390899912557147, "pct_15_29": 0.2372397599581744, "pct_30_59": 0.41540918386314801, "pct_60_mais": 0.15344205705310612, "empregos": 11227.184435, "empregos_por_morador": 1.0271673749914929, "concorrentes": 1.0, "metodo_area": "valhalla_osm", "cluster": 2, "perfil_chave": "familiar", "perfil": "Periferia familiar", "perfil_en": "Family outskirts", "potencial_total_mes": 2165035.4186911057 }, "geometry": { "type": "Point", "coordinates": [ -46.471, -23.542 ] } },
{ "type": "Feature", "properties": { "loja_id": "AG14", "nome": "Capão Redondo", "lat": -23.671, "lon": -46.779, "pop": 25655.041005066927, "domicilios": 9412.227259126581, "pop_0_14": 4862.9009048924618, "pop_15_29": 5738.6254258073459, "pop_30_59": 11184.024095847386, "pop_60_mais": 3859.9925374951449, "renda_media_resp": 2236.0400722103564, "area_km2": 1.4846381996923466, "densidade_hab_km2": 17280.332009767284, "pct_0_14": 0.18961972892173676, "pct_15_29": 0.22376696932693071, "pct_30_59": 0.43610010954061396, "pct_60_mais": 0.15051319221071854, "empregos": 9557.08515, "empregos_por_morador": 0.37252270024095674, "concorrentes": 0.0, "metodo_area": "valhalla_osm", "cluster": 2, "perfil_chave": "familiar", "perfil": "Periferia familiar", "perfil_en": "Family outskirts", "potencial_total_mes": 4086703.714714305 }, "geometry": { "type": "Point", "coordinates": [ -46.779, -23.671 ] } },
{ "type": "Feature", "properties": { "loja_id": "AG15", "nome": "Butantã", "lat": -23.5717, "lon": -46.7085, "pop": 6474.1554538267546, "domicilios": 2742.6107814994434, "pop_0_14": 488.0512614240929, "pop_15_29": 1715.4004978492439, "pop_30_59": 2529.2516345049239, "pop_60_mais": 1647.1311298254234, "renda_media_resp": 10574.386551664558, "area_km2": 2.4774286786865738, "densidade_hab_km2": 2613.2560382158304, "pct_0_14": 0.076499047054971972, "pct_15_29": 0.26887852521922317, "pct_30_59": 0.39644470795400233, "pct_60_mais": 0.25817771977180254, "empregos": 29068.197866, "empregos_por_morador": 4.4898825913761957, "concorrentes": 6.0, "metodo_area": "valhalla_osm", "cluster": 3, "perfil_chave": "corporativa", "perfil": "Corporativa (quem trabalha)", "perfil_en": "Business district (workers)", "potencial_total_mes": 2886274.8890383341 }, "geometry": { "type": "Point", "coordinates": [ -46.7085, -23.5717 ] } }
]
}
